[{"OBJECT_NAME":"ALOS-4 (DAICHI-4)","OBJECT_ID":"2024-123A","EPOCH":"2026-03-08T18:59:33.675072","MEAN_MOTION":14.79484045,"ECCENTRICITY":0.00014902,"INCLINATION":97.9194,"RA_OF_ASC_NODE":166.4039,"ARG_OF_PERICENTER":100.3284,"MEAN_ANOMALY":259.8096,"EPHEMERIS_TYPE":0,"CLASSIFICATION_TYPE":"U","NORAD_CAT_ID":60182,"ELEMENT_SET_NO":999,"REV_AT_EPOCH":9103,"BSTAR":0.00034629245,"MEAN_MOTION_DOT":2.536e-5,"MEAN_MOTION_DDOT":0},{"OBJECT_NAME":"CZ-4B R\/B","OBJECT_ID":"2014-079B","EPOCH":"2026-03-09T22:52:27.338880","MEAN_MOTION":15.04904185,"ECCENTRICITY":0.01415279,"INCLINATION":98.4648,"RA_OF_ASC_NODE":154.7469,"ARG_OF_PERICENTER":308.4035,"MEAN_ANOMALY":50.4548,"EPHEMERIS_TYPE":0,"CLASSIFICATION_TYPE":"U","NORAD_CAT_ID":40337,"ELEMENT_SET_NO":999,"REV_AT_EPOCH":61279,"BSTAR":0.00019142184,"MEAN_MOTION_DOT":3.298e-5,"MEAN_MOTION_DDOT":0}]
